STARLINK-30116          
1 57465U 23107J   26068.15144248 -.00001702  00000+0 -53767-4 0  9994
2 57465  43.0029 339.2408 0001961 277.6766  82.3863 15.26729842145066
FLOCK 4G-10             
1 62670U 25009BP  26068.70827885  .00013952  00000+0  52624-3 0  9995
2 62670  97.3967 150.5883 0003469 341.4844  18.6269 15.27155944121340
